ONEWEB-0589             
1 54655U 22166P   24354.93943813  .00000078  00000+0  15677-3 0  9993
2 54655  87.9293 352.4178 0002639  79.1525 280.9906 13.21828438 99646
ONEWEB-0590             
1 54656U 22166Q   24355.03878924 -.00000030  00000+0 -10326-3 0  9992
2 54656  87.9280 352.4027 0001930  92.3093 267.8261 13.21827010100103
ONEWEB-0591             
1 54657U 22166R   24355.05142503  .00000038  00000+0  60242-4 0  9991
2 54657  87.9292 352.3973 0001994  87.9980 272.1383 13.21826423100135
ONEWEB-0592             
1 54658U 22166S   24355.43304565  .00000107  00000+0  22657-3 0  9996
2 54658  87.9290 352.2802 0002001  89.4825 270.6538 13.21824220100070
ONEWEB-0593             
1 54659U 22166T   24354.69973107  .00000040  00000+0  65348-4 0  9999
2 54659  87.9292 352.4582 0002016  86.7251 273.4114 13.21825217 99614
ONEWEB-0594             
1 54660U 22166U   24354.71866264  .00000143  00000+0  31585-3 0  9998
2 54660  87.9298 352.4606 0001757  86.7947 273.3388 13.21824237 99637
ONEWEB-0595             
1 54661U 22166V   24354.69659099 -.00000029  00000+0 -10138-3 0  9998
2 54661  87.9294 352.4480 0001723  93.6865 266.4466 13.21827225 99600
ONEWEB-0596             
1 54662U 22166W   24355.42673366  .00000170  00000+0  38131-3 0  9992
2 54662  87.9297 352.3117 0002045  90.5889 269.5480 13.21824499100175
ONEWEB-0597             
1 54663U 22166X   24354.95362735  .00000114  00000+0  24372-3 0  9995
2 54663  87.9297 352.4082 0001948  83.3762 276.7593 13.21827857 99644
ONEWEB-0600             
1 54664U 22166Y   24354.70919532 -.00000029  00000+0 -10291-3 0  9994
2 54664  87.9289 352.4864 0001891  84.3195 275.8154 13.21827081 99587
ONEWEB-0601             
1 54665U 22166Z   24355.00409510 -.00000005  00000+0 -42932-4 0  9991
2 54665  87.9299 352.4062 0002281  86.1244 274.0151 13.21828092100278
ONEWEB-0602             
1 54666U 22166AA  24355.04511330  .00000017  00000+0  95261-5 0  9995
2 54666  87.9295 352.4000 0001980  81.3937 278.7421 13.21823457100134
ONEWEB-0603             
1 54667U 22166AB  24355.04982170  .00000005  00000+0 -19135-4 0  9993
2 54667  87.9273 352.3884 0002139  83.9669 276.1708 13.21828700100054
ONEWEB-0604             
1 54668U 22166AC  24355.03721987  .00000065  00000+0  12590-3 0  9992
2 54668  87.9290 352.3726 0001914  80.5152 279.6198 13.21823716100029
ONEWEB-0605             
1 54669U 22166AD  24355.03092285  .00000100  00000+0  21031-3 0  9995
2 54669  87.9290 352.4054 0002524  93.0341 267.1082 13.21826064100092
ONEWEB-0606             
1 54670U 22166AE  24355.05300240 -.00000016  00000+0 -69611-4 0  9997
2 54670  87.9298 352.4018 0001671  92.6815 267.4510 13.21826277100146
ONEWEB-0607             
1 54671U 22166AF  24355.47404237 -.00000343  00000+0 -86170-3 0  9996
2 54671  87.9292 352.2893 0001956  83.3049 276.8307 13.21825347100170
ONEWEB-0608             
1 54672U 22166AG  24355.25326179 -.00000145  00000+0 -38148-3 0  9993
2 54672  87.9274 352.3535 0002296  84.8517 275.2879 13.21826190100151
ONEWEB-0610             
1 54673U 22166AH  24354.70448381  .00000068  00000+0  13261-3 0  9994
2 54673  87.9293 352.4607 0002308  86.9029 273.2369 13.21826269 99526
ONEWEB-0611             
1 54674U 22166AJ  24354.69815256  .00000022  00000+0  22924-4 0  9999
2 54674  87.9293 352.4598 0001510  90.0829 270.0478 13.21823425 99510
ONEWEB-0612             
1 54675U 22166AK  24355.46775650 -.00000097  00000+0 -26575-3 0  9998
2 54675  87.9293 352.2868 0002020  85.9359 274.2006 13.21826170100074
ONEWEB-0615             
1 54676U 22166AL  24354.99463321 -.00000057  00000+0 -17001-3 0  9995
2 54676  87.9291 352.4064 0001910  81.2628 278.8722 13.21827500100026
ONEWEB-0655             
1 54677U 22166AM  24355.04351485 -.00000446  00000+0 -11121-2 0  9998
2 54677  87.9293 352.4000 0001892  77.0590 283.0755 13.21824485100022
ONEWEB-0659             
1 54678U 22166AN  24355.06086927 -.00000046  00000+0 -14341-3 0  9991
2 54678  87.9292 352.4005 0001800  94.2284 265.9056 13.21823517100115
ONEWEB-0685             
1 54679U 22166AP  24355.44092657  .00000084  00000+0  17273-3 0  9998
2 54679  87.9293 352.3169 0001950  82.0438 278.0917 13.21823969100054
ONEWEB-0712             
1 54680U 22166AQ  24355.37778022  .00000027  00000+0  36384-4 0  9991
2 54680  87.9081 337.1129 0001587  65.5063 294.6233 13.16593833100967
ONEWEB-0714             
1 54681U 22166AR  24354.53887998 -.00002233  00000+0 -54380-2 0  9999
2 54681  87.9293 352.4856 0002186  84.7363 275.4020 13.21833813100054
ONEWEB-0532             
1 55140U 23004A   24354.87474314  .00000077  00000+0  16555-3 0  9998
2 55140  87.9102 114.2984 0002124 108.6174 251.5189 13.17647620 95900
ONEWEB-0533             
1 55141U 23004B   24354.81912311  .00000460  00000+0  12437-2 0  9997
2 55141  87.8889  99.0472 0001667 100.3883 259.7434 13.12444385 96655
ONEWEB-0541             
1 55142U 23004C   24355.41521244 -.00000370  00000+0 -10807-2 0  9997
2 55142  87.8898 129.4094 0001549 101.6611 258.4691 13.11418502 94689
ONEWEB-0543             
1 55143U 23004D   24354.75036601  .00000119  00000+0  26951-3 0  9999
2 55143  87.9105  83.8624 0001434  94.9178 265.2118 13.18687237 97941
ONEWEB-0544             
1 55144U 23004E   24354.81990579  .00000034  00000+0  54552-4 0  9995
2 55144  87.9107  83.8360 0001619 108.5308 251.6000 13.18684610 97955
ONEWEB-0560             
1 55145U 23004F   24355.49648301 -.00000008  00000+0 -52049-4 0  9996
2 55145  87.9115  83.6631 0001394 111.8257 248.3024 13.18686521 98058
ONEWEB-0565             
1 55146U 23004G   24354.80726397 -.00000001  00000+0 -36411-4 0  9991
2 55146  87.9110  83.8696 0001849 124.3244 235.8063 13.18688197 97950
ONEWEB-0567             
1 55147U 23004H   24354.80093936  .00000018  00000+0  11696-4 0  9992
2 55147  87.9108  83.8257 0001582 120.9577 239.1711 13.18683728 97958
ONEWEB-0569             
1 55148U 23004J   24355.17531599 -.00000065  00000+0 -21373-3 0  9992
2 55148  87.8927  68.3971 0001211 140.3195 219.8023 13.13471873 98761
ONEWEB-0570             
1 55149U 23004K   24355.54706901 -.00000137  00000+0 -37911-3 0  9990
2 55149  87.9109  83.6774 0002451 113.4094 246.7296 13.18686378 98047
ONEWEB-0571             
1 55150U 23004L   24355.54072874 -.00000351  00000+0 -92412-3 0  9992
2 55150  87.9106  83.6861 0001993 135.8449 224.2842 13.18686904 98059
ONEWEB-0572             
1 55151U 23004M   24354.82919908  .00000072  00000+0  15297-3 0  9995
2 55151  87.9100 114.3144 0001714 110.6590 249.4725 13.17649719 95798
ONEWEB-0573             
1 55152U 23004N   24355.53441675  .00000030  00000+0  43798-4 0  9998
2 55152  87.9107  83.6996 0002227 129.2614 230.8715 13.18684511 98046
ONEWEB-0588             
1 55153U 23004P   24354.76931979 -.00000291  00000+0 -77127-3 0  9997
2 55153  87.9109  83.8280 0002177 114.2688 245.8672 13.18685714 97948
ONEWEB-0598             
1 55154U 23004Q   24354.85908840 -.00000254  00000+0 -75292-3 0  9999
2 55154  87.8894 129.5581 0001288 130.1070 230.0171 13.11414136 94550
ONEWEB-0599             
1 55155U 23004R   24355.39785952 -.00000013  00000+0 -65802-4 0  9997
2 55155  87.9104 114.1960 0001446 106.1986 253.9305 13.17648120 95879
ONEWEB-0614             
1 55156U 23004S   24355.38809424  .00000123  00000+0  31130-3 0  9994
2 55156  87.8901 129.4599 0001866  97.3586 262.7754 13.11415529 94586
ONEWEB-0616             
1 55157U 23004T   24354.83255513  .00000092  00000+0  20273-3 0  9999
2 55157  87.9097 114.3078 0000833  59.0124 301.1089 13.17647708 96016
ONEWEB-0617             
1 55158U 23004U   24354.91844742  .00000531  00000+0  14637-2 0  9991
2 55158  87.8893 129.5409 0001882 106.2281 253.9054 13.11416496 94533
ONEWEB-0618             
1 55159U 23004V   24355.54520411  .00000612  00000+0  24124-3 0  9999
2 55159  86.9074  27.1954 0014542  47.2257 313.0157 14.27526363101924
ONEWEB-0619             
1 55160U 23004W   24355.39617704  .00000150  00000+0  35283-3 0  9991
2 55160  87.9102 114.1732 0001893  87.0786 273.0562 13.17647446 95981
ONEWEB-0620             
1 55161U 23004X   24355.44743897  .00000615  00000+0  16982-2 0  9991
2 55161  87.8899 129.4510 0001861 113.6969 246.4355 13.11415832 94564
ONEWEB-0621             
1 55162U 23004Y   24354.86418438 -.00000410  00000+0 -11920-2 0  9999
2 55162  87.8896 129.5284 0001707  93.0960 267.0363 13.11415110 94468
ONEWEB-0622             
1 55163U 23004Z   24354.86927000 -.00000443  00000+0 -12852-2 0  9991
2 55163  87.8894 129.5483 0002392 108.2474 251.8914 13.11415650 94459
ONEWEB-0623             
1 55164U 23004AA  24354.85957421  .00000054  00000+0  10463-3 0  9994
2 55164  87.9101 114.3344 0002457  99.1052 261.0358 13.17649769 95904
ONEWEB-0624             
1 55165U 23004AB  24354.78519447 -.00000354  00000+0 -10192-2 0  9992
2 55165  87.8889  99.0620 0001781 103.1121 257.0206 13.12443474 96644
ONEWEB-0625             
1 55166U 23004AC  24354.84944385 -.00000028  00000+0 -10514-3 0  9990
2 55166  87.9100 114.3348 0001469  98.0105 262.1193 13.17650332 95893
ONEWEB-0626             
1 55167U 23004AD  24354.83931462  .00000110  00000+0  25040-3 0  9992
2 55167  87.9099 114.3360 0001585 121.3972 238.7315 13.17647554 95893
ONEWEB-0627             
1 55168U 23004AE  24354.82750503  .00000005  00000+0 -21187-4 0  9990
2 55168  87.9101 114.3402 0002266 104.3774 255.7609 13.17647717 95899
ONEWEB-0628             
1 55169U 23004AF  24354.84196938  .00000140  00000+0  35239-3 0  9990
2 55169  87.8890  99.0333 0002399  96.9107 263.2294 13.12442209 96630
ONEWEB-0629             
1 55170U 23004AG  24354.80305027  .00000039  00000+0  68488-4 0  9999
2 55170  87.9098 114.3181 0001777  88.9973 271.1362 13.17649187 95896
ONEWEB-0631             
1 55171U 23004AH  24354.76299771  .00000043  00000+0  75712-4 0  9996
2 55171  87.9117  83.7448 0002022 120.8770 239.2561 13.18688441 97928
